KUIPER-00079            
1 64826U 25151L   25258.83341435 -.00897776  00000+0 -69803-1 0  9995
2 64826  51.8993 354.7170 0011208  13.4069 139.8916 15.03683505  4608
KUIPER-00080            
1 64827U 25151M   25258.83341435  .00002111  00000+0  17857-3 0  9999
2 64827  51.8935 354.7415 0005946  41.3442 206.9834 15.02259193  4969
KUIPER-00082            
1 64828U 25151N   25258.83341435 -.00368799  00000+0 -11901-1 0  9991
2 64828  51.8792 350.5592 0006263  23.7094  77.1852 15.33114260  5510
KUIPER-00083            
1 64829U 25151P   25258.83341435 -.00558651  00000+0 -31513-1 0  9991
2 64829  51.8882 352.3529 0009489  14.8821 238.8253 15.14936559  5527
KUIPER-00084            
1 64830U 25151Q   25258.83341435 -.00176637  00000+0 -21700-1 0  9990
2 64830  51.8979 358.7466 0012324   6.4061 279.6728 14.83620193  5014
KUIPER-00085            
1 64831U 25151R   25258.83341435 -.00591497  00000+0 -20753-1 0  9993
2 64831  51.8805 350.5469 0007407  10.7053  79.9193 15.31007428  5551
KUIPER-00086            
1 64832U 25151S   25258.83341435 -.01015299  00000+0 -70734-1 0  9990
2 64832  51.8958 353.4646 0009875  13.7270  40.5645 15.07640998  4895
KUIPER-00087            
1 64833U 25151T   25258.55387157  .00039083  00000+0  10677-2 0  9996
2 64833  51.8799 351.8909 0006742   3.1651 356.9377 15.36999082  9400
